NORAD_CAT_ID,OBJECT_NAME,OBJECT_TYPE,EPOCH,MEAN_MOTION,ECCENTRICITY,INCLINATION,RA_OF_ASC_NODE,ARG_OF_PERICENTER,MEAN_ANOMALY,BSTAR,MEAN_MOTION_DOT,MEAN_MOTION_DDOT,TLE_LINE0,TLE_LINE1,TLE_LINE2,SEMIMAJOR_AXIS,PERIOD,APOGEE,PERIGEE,DECAYED
51746.0,STARLINK-3502,PAYLOAD,2022-08-24 14:00:01,15.08852219,0.0001341999999999,53.217,354.103,58.0324,336.9984,-0.001234,-0.0001988,0.0,0 STARLINK-3502,1 51746U 22016AJ  22236.58334491 -.00019880  00000-0 -12340-2 0  9996,2 51746  53.2170 354.1030 0001342  58.0324 336.9984 15.08852219  1308,6917.843000000003,95.437,540.636,538.78,0.0
51746.0,STARLINK-3502,PAYLOAD,2022-08-24 16:00:00,15.0883916,0.0001368,53.2171,353.7292,56.5855,71.3491,0.00051528,7.922e-05,0.0,0 STARLINK-3502,1 51746U 22016AJ  22236.66667824  .00007922  00000-0  51528-3 0  9998,2 51746  53.2171 353.7292 0001368  56.5855  71.3491 15.08839160 29611,6917.8830000000025,95.438,540.694,538.802,0.0
51746.0,STARLINK-3502,PAYLOAD,2022-08-24 22:00:00,15.08860556,0.0001335,53.2168,352.6064,54.1347,352.4929,-0.0012727,-0.00020497,0.0,0 STARLINK-3502,1 51746U 22016AJ  22236.91667824 -.00020497  00000-0 -12727-2 0  9997,2 51746  53.2168 352.6064 0001335  54.1347 352.4929 15.08860556  1304,6917.818,95.436,540.606,538.759,0.0
51746.0,STARLINK-3502,PAYLOAD,2022-08-25 14:00:01,15.08838881,0.0001486,53.2169,349.61400000000015,59.026,10.8176,-0.0015914999999999,-0.00025527,0.0,0 STARLINK-3502,1 51746U 22016AJ  22237.58334491 -.00025527  00000-0 -15915-2 0  9993,2 51746  53.2169 349.6140 0001486  59.0260  10.8176 15.08838881  1306,6917.884,95.438,540.7769999999998,538.721,0.0
51746.0,STARLINK-3502,PAYLOAD,2022-08-25 22:00:00,15.08846073,0.0001456,53.2169,348.1173,55.7801,25.6428,-0.0014512,-0.00023313,0.0,0 STARLINK-3502,1 51746U 22016AJ  22237.91667824 -.00023313  00000-0 -14512-2 0  9992,2 51746  53.2169 348.1173 0001456  55.7801  25.6428 15.08846073 29808,6917.861999999999,95.437,540.734,538.72,0.0
51746.0,STARLINK-3502,PAYLOAD,2022-08-26 14:00:01,15.08842927,0.0001541,53.2172,345.1251,57.4009,47.2662,-0.00080277,-0.00013042,0.0,0 STARLINK-3502,1 51746U 22016AJ  22238.58335648 -.00013042  00000-0 -80277-3 0  9992,2 51746  53.2172 345.1251 0001541  57.4009  47.2662 15.08842927  1309,6917.871,95.437,540.802,538.67,0.0
51746.0,STARLINK-3502,PAYLOAD,2022-08-26 22:00:00,15.08859619,0.0001501999999999,53.2173,343.6283,54.9649,61.2296,-0.0015945,-0.00025588,0.0,0 STARLINK-3502,1 51746U 22016AJ  22238.91667824 -.00025588  00000-0 -15945-2 0  9990,2 51746  53.2173 343.6283 0001502  54.9649  61.2296 15.08859619  1302,6917.82,95.436,540.724,538.646,0.0
51746.0,STARLINK-3502,PAYLOAD,2022-08-27 14:00:01,15.08839139,0.0001501999999999,53.2176,340.6362,53.5614,85.8515,-0.0016419,-0.00026323,0.0,0 STARLINK-3502,1 51746U 22016AJ  22239.58334491 -.00026323  00000-0 -16419-2 0  9990,2 51746  53.2176 340.6362 0001502  53.5614  85.8515 15.08839139  1308,6917.8830000000025,95.438,540.7869999999998,538.7090000000002,0.0
51746.0,STARLINK-3502,PAYLOAD,2022-08-27 22:00:00,15.08847726,0.0001435,53.2176,339.1393,51.5996,99.3942,-0.0017003,-0.00027252,0.0,0 STARLINK-3502,1 51746U 22016AJ  22239.91667824 -.00027252  00000-0 -17003-2 0  9998,2 51746  53.2176 339.1393 0001435  51.5996  99.3942 15.08847726 30106,6917.857,95.437,540.714,538.729,0.0
51746.0,STARLINK-3502,PAYLOAD,2022-08-28 14:00:01,15.08845057,0.000153,53.2178,336.1474,51.6592,122.5311,5.7943e-05,6.34e-06,0.0,0 STARLINK-3502,1 51746U 22016AJ  22240.58334491  .00000634  00000-0  57943-4 0  9996,2 51746  53.2178 336.1474 0001530  51.6592 122.5311 15.08845057  1308,6917.865,95.437,540.788,538.6709999999998,0.0
51746.0,STARLINK-3502,PAYLOAD,2022-08-28 22:00:00,15.08868985,0.0001491,53.2177,334.6503,53.272,132.5146,-0.0045638,-0.0007224999999999,0.0,0 STARLINK-3502,1 51746U 22016AJ  22240.91667824 -.00072250  00000-0 -45638-2 0  9993,2 51746  53.2177 334.6503 0001491  53.2720 132.5146 15.08868985  1302,6917.792,95.436,540.688,538.625,0.0
51746.0,STARLINK-3502,PAYLOAD,2022-08-29 14:00:01,15.08842061,0.0001634,53.2178,331.655,54.0965,154.8896,-0.0037974,-0.00060222,0.0,0 STARLINK-3502,1 51746U 22016AJ  22241.58334491 -.00060222  00000-0 -37974-2 0  9998,2 51746  53.2178 331.6550 0001634  54.0965 154.8896 15.08842061  1307,6917.874,95.437,540.869,538.609,0.0
51746.0,STARLINK-3502,PAYLOAD,2022-08-29 16:00:00,15.08796039,0.0001675,53.2175,331.2829,53.3681,248.5335,0.002781,0.00044196,0.0,0 STARLINK-3502,1 51746U 22016AJ  22241.66667824  .00044196  00000-0  27810-2 0  9994,2 51746  53.2175 331.2829 0001675  53.3681 248.5335 15.08796039 30361,6918.015,95.44,541.039,538.721,0.0
51746.0,STARLINK-3502,PAYLOAD,2022-08-29 22:00:00,15.08869443,0.0001508,53.2173,330.157,54.9183,165.6433,-0.0082076,-0.00128691,0.0,0 STARLINK-3502,1 51746U 22016AJ  22241.91667824 -.00128691  00000-0 -82076-2 0  9992,2 51746  53.2173 330.1570 0001508  54.9183 165.6433 15.08869443  1309,6917.79,95.436,540.6990000000002,538.612,0.0
51746.0,STARLINK-3502,PAYLOAD,2022-08-30 14:00:01,15.08819358,0.0001534,53.2172,327.1697,51.072,192.7051,6.8781e-05,8.06e-06,0.0,0 STARLINK-3502,1 51746U 22016AJ  22242.58334491  .00000806  00000-0  68781-4 0  9991,2 51746  53.2172 327.1697 0001534  51.0720 192.7051 15.08819358  1305,6917.943,95.439,540.87,538.747,0.0
51746.0,STARLINK-3502,PAYLOAD,2022-08-30 16:00:00,15.0879859,0.0001506999999999,53.2171,326.7957,49.6196,287.0563,0.0027662,0.00043961,0.0,0 STARLINK-3502,1 51746U 22016AJ  22242.66667824  .00043961  00000-0  27662-2 0  9999,2 51746  53.2171 326.7957 0001507  49.6196 287.0563 15.08798590 30513,6918.007,95.44,540.915,538.8290000000002,0.0
51746.0,STARLINK-3502,PAYLOAD,2022-08-30 22:00:00,15.08837613,0.0001394,53.2168,325.6723,52.4887,202.8548,-0.0018768,-0.00030031,0.0,0 STARLINK-3502,1 51746U 22016AJ  22242.91667824 -.00030031  00000-0 -18768-2 0  9990,2 51746  53.2168 325.6723 0001394  52.4887 202.8548 15.08837613  1304,6917.888000000001,95.438,540.717,538.788,0.0
51746.0,STARLINK-3502,PAYLOAD,2022-08-31 14:00:01,15.08820687,0.0001516,53.2166,322.6808,50.9238,227.5873,0.0014877,0.00023456,0.0,0 STARLINK-3502,1 51746U 22016AJ  22243.58334491  .00023456  00000-0  14877-2 0  9993,2 51746  53.2166 322.6808 0001516  50.9238 227.5873 15.08820687  1300,6917.939,95.439,540.8530000000002,538.756,0.0
51746.0,STARLINK-3502,PAYLOAD,2022-08-31 22:00:00,15.08849428,0.0001396999999999,53.2162,321.1831,52.7084,237.3824,-0.0016881,-0.0002706,0.0,0 STARLINK-3502,1 51746U 22016AJ  22243.91667824 -.00027060  00000-0 -16881-2 0  9993,2 51746  53.2162 321.1831 0001397  52.7084 237.3824 15.08849428  1301,6917.852,95.437,540.683,538.75,0.0
51746.0,STARLINK-3502,PAYLOAD,2022-09-01 14:00:01,15.08842581,0.0001583,53.216,318.1915,51.0866,262.267,-0.00022329,-3.84e-05,0.0,0 STARLINK-3502,1 51746U 22016AJ  22244.58335648 -.00003840  00000-0 -22329-3 0  9998,2 51746  53.2160 318.1915 0001583  51.0866 262.2670 15.08842581 30801,6917.871999999999,95.437,540.8330000000002,538.6419999999998,0.0
51746.0,STARLINK-3502,PAYLOAD,2022-09-01 22:00:00,15.0883908,0.000154,53.2158,316.6937,54.5385,270.3527,-0.0017809,-0.00028519,0.0,0 STARLINK-3502,1 51746U 22016AJ  22244.91667824 -.00028519  00000-0 -17809-2 0  9995,2 51746  53.2158 316.6937 0001540  54.5385 270.3527 15.08839080  1306,6917.8830000000025,95.438,540.814,538.683,0.0
51746.0,STARLINK-3502,PAYLOAD,2022-09-02 14:00:01,15.08814854,0.0001706,53.2159,313.7021,51.9877,296.0719,0.0021976,0.00034836,0.0,0 STARLINK-3502,1 51746U 22016AJ  22245.58334491  .00034836  00000-0  21976-2 0  9997,2 51746  53.2159 313.7021 0001706  51.9877 296.0719 15.08814854  1300,6917.956999999999,95.439,541.002,538.6419999999998,0.0
51746.0,STARLINK-3502,PAYLOAD,2022-09-02 16:00:00,15.08814555,0.0001682,53.2157,313.3279,49.7887,31.1662,0.0027564,0.00043823,0.0,0 STARLINK-3502,1 51746U 22016AJ  22245.66667824  .00043823  00000-0  27564-2 0  9990,2 51746  53.2157 313.3279 0001682  49.7887  31.1662 15.08814555 30976,6917.958000000001,95.439,540.987,538.66,0.0
51746.0,STARLINK-3502,PAYLOAD,2022-09-02 22:00:01,15.08842715,0.0001597,53.2159,312.2041,54.1117,305.592,-0.00083343,-0.00013529,0.0,0 STARLINK-3502,1 51746U 22016AJ  22245.91668981 -.00013529  00000-0 -83343-3 0  9993,2 51746  53.2159 312.2041 0001597  54.1117 305.5920 15.08842715  1303,6917.871999999999,95.437,540.842,538.632,0.0
51746.0,STARLINK-3502,PAYLOAD,2022-09-03 08:00:01,15.08862165,0.0001656,53.216,310.3338,55.1209,49.0087,-0.0016632,-0.00026677,0.0,0 STARLINK-3502,1 51746U 22016AJ  22246.33334491 -.00026677  00000-0 -16632-2 0  9990,2 51746  53.2160 310.3338 0001656  55.1209  49.0087 15.08862165 31074,6917.813,95.436,540.823,538.5319999999998,0.0
51746.0,STARLINK-3502,PAYLOAD,2022-09-03 14:00:01,15.08841907,0.0001739,53.2162,309.2126,49.3581,333.4837,-0.00012485,-2.275e-05,0.0,0 STARLINK-3502,1 51746U 22016AJ  22246.58334491 -.00002275  00000-0 -12485-3 0  9998,2 51746  53.2162 309.2126 0001739  49.3581 333.4837 15.08841907  1305,6917.875,95.437,540.943,538.5369999999998,0.0
51746.0,STARLINK-3502,PAYLOAD,2022-09-03 22:00:00,15.08830504,0.0001564999999999,53.2164,307.7146,51.0407,343.4071,-8.149100000000001e-05,-1.584e-05,0.0,0 STARLINK-3502,1 51746U 22016AJ  22246.91667824 -.00001584  00000-0 -81491-4 0  9990,2 51746  53.2164 307.7146 0001565  51.0407 343.4071 15.08830504  1308,6917.909000000002,95.438,540.857,538.692,0.0
51746.0,STARLINK-3502,PAYLOAD,2022-09-04 08:00:01,15.08856934,0.0001646,53.2165,305.8445,51.6912,87.23899999999998,-0.0013427,-0.00021604,0.0,0 STARLINK-3502,1 51746U 22016AJ  22247.33334491 -.00021604  00000-0 -13427-2 0  9995,2 51746  53.2165 305.8445 0001646  51.6912  87.2390 15.08856934 31223,6917.829000000002,95.436,540.832,538.555,0.0
51746.0,STARLINK-3502,PAYLOAD,2022-09-04 14:00:01,15.08833093,0.0001774999999999,53.2166,304.7233,47.4155,10.2873,0.0018125,0.0002867,0.0,0 STARLINK-3502,1 51746U 22016AJ  22247.58335648  .00028670  00000-0  18125-2 0  9995,2 51746  53.2166 304.7233 0001775  47.4155  10.2873 15.08833093  1301,6917.901999999999,95.438,540.994,538.539,0.0
